start=new Date('2022-05-16T00:00:00.000Z').valueOf();
sats=[{"RCS_SIZE":"LARGE","MEAN_MOTION":"15.06398389","DECAY_DATE":null,"OBJECT_TYPE":"PAYLOAD","PERIAPSIS":"545.705","MEAN_MOTION_DOT":"0.00003185","INCLINATION":"53.0550","SEMIMAJOR_AXIS":"6925.353","ECCENTRICITY":"0.00021850","MEAN_MOTION_DDOT":"0.0000000000000","OBJECT_ID":"2020-074AV","ELEMENT_SET_NO":"999","BSTAR":"0.00023262000000","CLASSIFICATION_TYPE":"U","CENTER_NAME":"EARTH","REF_FRAME":"TEME","COUNTRY_CODE":"US","RA_OF_ASC_NODE":"89.8925","SITE":"AFETR","ARG_OF_PERICENTER":"54.4236","EPOCH":"2022-05-15T14:33:37.882944","PERIOD":"95.592","TLE_LINE1":"1 46782U 20074AV  22135.60668846  .00003185  00000-0  23262-3 0  9992","OBJECT_NAME":"STARLINK-1835","FILE":"3447521","LAUNCH_DATE":"2020-10-24","TIME_SYSTEM":"UTC","REV_AT_EPOCH":"8669","MEAN_ANOMALY":"305.6956","TLE_LINE2":"2 46782  53.0550  89.8925 0002185  54.4236 305.6956 15.06398389 86693","GP_ID":"203648567","APOAPSIS":"548.732","MEAN_ELEMENT_THEORY":"SGP4","NORAD_CAT_ID":"46782","EPHEMERIS_TYPE":"0"},{"PERIOD":"95.592","OBJECT_NAME":"STARLINK-1851","FILE":"3447521","TLE_LINE1":"1 46783U 20074AW  22135.88680918  .00002235  00000-0  16892-3 0  9993","TIME_SYSTEM":"UTC","LAUNCH_DATE":"2020-10-24","REV_AT_EPOCH":"8673","MEAN_ANOMALY":"306.0271","GP_ID":"203649817","TLE_LINE2":"2 46783  53.0545  88.6485 0002004  54.0904 306.0271 15.06400334 86738","APOAPSIS":"548.600","NORAD_CAT_ID":"46783","MEAN_ELEMENT_THEORY":"SGP4","EPHEMERIS_TYPE":"0","MEAN_MOTION":"15.06400334","RCS_SIZE":"LARGE","DECAY_DATE":null,"MEAN_MOTION_DOT":"0.00002235","OBJECT_TYPE":"PAYLOAD","PERIAPSIS":"545.825","INCLINATION":"53.0545","SEMIMAJOR_AXIS":"6925.348","OBJECT_ID":"2020-074AW","MEAN_MOTION_DDOT":"0.0000000000000","ECCENTRICITY":"0.00020040","BSTAR":"0.00016892000000","CLASSIFICATION_TYPE":"U","CENTER_NAME":"EARTH","ELEMENT_SET_NO":"999","COUNTRY_CODE":"US","REF_FRAME":"TEME","RA_OF_ASC_NODE":"88.6485","SITE":"AFETR","ARG_OF_PERICENTER":"54.0904","EPOCH":"2022-05-15T21:17:00.313152"},{"TIME_SYSTEM":"UTC","LAUNCH_DATE":"2020-10-24","PERIOD":"95.592","OBJECT_NAME":"STARLINK-1882","FILE":"3447100","TLE_LINE1":"1 46784U 20074AX  22135.16068069 -.00000457  00000-0 -11799-4 0  9990","MEAN_ANOMALY":"308.1671","REV_AT_EPOCH":"8662","APOAPSIS":"548.449","GP_ID":"203614676","TLE_LINE2":"2 46784  53.0553  91.9138 0001794  51.9479 308.1671 15.06402156 86627","EPHEMERIS_TYPE":"0","MEAN_ELEMENT_THEORY":"SGP4","NORAD_CAT_ID":"46784","DECAY_DATE":null,"RCS_SIZE":"LARGE","MEAN_MOTION":"15.06402156","SEMIMAJOR_AXIS":"6925.342","INCLINATION":"53.0553","OBJECT_ID":"2020-074AX","MEAN_MOTION_DDOT":"0.0000000000000","ECCENTRICITY":"0.00017940","OBJECT_TYPE":"PAYLOAD","MEAN_MOTION_DOT":"-0.00000457","PERIAPSIS":"545.965","CENTER_NAME":"EARTH","CLASSIFICATION_TYPE":"U","BSTAR":"-0.00001179900000","ELEMENT_SET_NO":"999","COUNTRY_CODE":"US","REF_FRAME":"TEME","EPOCH":"2022-05-15T03:51:22.811616","RA_OF_ASC_NODE":"91.9138","SITE":"AFETR","ARG_OF_PERICENTER":"51.9479"},{"EPHEMERIS_TYPE":"0","MEAN_ELEMENT_THEORY":"SGP4","NORAD_CAT_ID":"46785","APOAPSIS":"548.865","GP_ID":"203648818","TLE_LINE2":"2 46785  53.0543  89.8862 0002419  53.8104 306.3108 15.06407887 86696","MEAN_ANOMALY":"306.3108","REV_AT_EPOCH":"8669","TIME_SYSTEM":"UTC","LAUNCH_DATE":"2020-10-24","PERIOD":"95.592","FILE":"3447521","OBJECT_NAME":"STARLINK-1883","TLE_LINE1":"1 46785U 20074AY  22135.61035416  .00001296  00000-0  10591-3 0  9999","EPOCH":"2022-05-15T14:38:54.599424","SITE":"AFETR","RA_OF_ASC_NODE":"89.8862","ARG_OF_PERICENTER":"53.8104","CLASSIFICATION_TYPE":"U","CENTER_NAME":"EARTH","BSTAR":"0.00010591000000","ELEMENT_SET_NO":"999","COUNTRY_CODE":"US","REF_FRAME":"TEME","INCLINATION":"53.0543","SEMIMAJOR_AXIS":"6925.324","MEAN_MOTION_DDOT":"0.0000000000000","OBJECT_ID":"2020-074AY","ECCENTRICITY":"0.00024190","OBJECT_TYPE":"PAYLOAD","MEAN_MOTION_DOT":"0.00001296","PERIAPSIS":"545.514","DECAY_DATE":null,"RCS_SIZE":"LARGE","MEAN_MOTION":"15.06407887"},{"REV_AT_EPOCH":"8696","MEAN_ANOMALY":"300.3275","FILE":"3447100","OBJECT_NAME":"STARLINK-1893","TLE_LINE1":"1 46786U 20074AZ  22135.52374828  .00000497  00000-0  52287-4 0  9994","PERIOD":"95.593","TIME_SYSTEM":"UTC","LAUNCH_DATE":"2020-10-24","NORAD_CAT_ID":"46786","MEAN_ELEMENT_THEORY":"SGP4","EPHEMERIS_TYPE":"0","GP_ID":"203613177","TLE_LINE2":"2 46786  53.0574  70.2748 0001909  59.7903 300.3275 15.06392575 86969","APOAPSIS":"548.558","MEAN_MOTION_DOT":"0.00000497","OBJECT_TYPE":"PAYLOAD","PERIAPSIS":"545.914","MEAN_MOTION_DDOT":"0.0000000000000","OBJECT_ID":"2020-074AZ","ECCENTRICITY":"0.00019090","INCLINATION":"53.0574","SEMIMAJOR_AXIS":"6925.371","MEAN_MOTION":"15.06392575","RCS_SIZE":"LARGE","DECAY_DATE":null,"ARG_OF_PERICENTER":"59.7903","RA_OF_ASC_NODE":"70.2748","SITE":"AFETR","EPOCH":"2022-05-15T12:34:11.851392","REF_FRAME":"TEME","COUNTRY_CODE":"US","CENTER_NAME":"EARTH","BSTAR":"0.00005228700000","CLASSIFICATION_TYPE":"U","ELEMENT_SET_NO":"999"},{"MEAN_MOTION_DOT":"0.00003045","OBJECT_TYPE":"PAYLOAD","PERIAPSIS":"546.073","SEMIMAJOR_AXIS":"6925.338","INCLINATION":"53.0555","MEAN_MOTION_DDOT":"0.0000000000000","OBJECT_ID":"2020-074BA","ECCENTRICITY":"0.00016320","RCS_SIZE":"LARGE","MEAN_MOTION":"15.06403520","DECAY_DATE":null,"SITE":"AFETR","RA_OF_ASC_NODE":"68.8071","ARG_OF_PERICENTER":"60.7671","EPOCH":"2022-05-15T20:21:15.801984","CENTER_NAME":"EARTH","CLASSIFICATION_TYPE":"U","BSTAR":"0.00022321000000","ELEMENT_SET_NO":"999","REF_FRAME":"TEME","COUNTRY_CODE":"US","REV_AT_EPOCH":"8701","MEAN_ANOMALY":"299.3481","PERIOD":"95.592","OBJECT_NAME":"STARLINK-1899","FILE":"3447521","TLE_LINE1":"1 46787U 20074BA  22135.84809956  .00003045  00000-0  22321-3 0  9992","TIME_SYSTEM":"UTC","LAUNCH_DATE":"2020-10-24","NORAD_CAT_ID":"46787","MEAN_ELEMENT_THEORY":"SGP4","EPHEMERIS_TYPE":"0","GP_ID":"203649317","TLE_LINE2":"2 46787  53.0555  68.8071 0001632  60.7671 299.3481 15.06403520 87014","APOAPSIS":"548.333"},{"REV_AT_EPOCH":"8701","MEAN_ANOMALY":"311.2679","OBJECT_NAME":"STARLINK-1929","FILE":"3447521","TLE_LINE1":"1 46788U 20074BB  22135.84072674  .00001279  00000-0  10473-3 0  9994","PERIOD":"95.592","TIME_SYSTEM":"UTC","LAUNCH_DATE":"2020-10-24","NORAD_CAT_ID":"46788","MEAN_ELEMENT_THEORY":"SGP4","EPHEMERIS_TYPE":"0","GP_ID":"203650063","TLE_LINE2":"2 46788  53.0566  68.8630 0002038  48.8486 311.2679 15.06398586 87018","APOAPSIS":"548.629","OBJECT_TYPE":"PAYLOAD","PERIAPSIS":"545.807","MEAN_MOTION_DOT":"0.00001279","MEAN_MOTION_DDOT":"0.0000000000000","OBJECT_ID":"2020-074BB","ECCENTRICITY":"0.00020380","SEMIMAJOR_AXIS":"6925.353","INCLINATION":"53.0566","MEAN_MOTION":"15.06398586","RCS_SIZE":"LARGE","DECAY_DATE":null,"ARG_OF_PERICENTER":"48.8486","SITE":"AFETR","RA_OF_ASC_NODE":"68.8630","EPOCH":"2022-05-15T20:10:38.790336","COUNTRY_CODE":"US","REF_FRAME":"TEME","CENTER_NAME":"EARTH","BSTAR":"0.00010473000000","CLASSIFICATION_TYPE":"U","ELEMENT_SET_NO":"999"},{"COUNTRY_CODE":"US","REF_FRAME":"TEME","ELEMENT_SET_NO":"999","CENTER_NAME":"EARTH","CLASSIFICATION_TYPE":"U","BSTAR":"0.00001626600000","EPOCH":"2022-05-15T04:25:50.566656","ARG_OF_PERICENTER":"59.7130","RA_OF_ASC_NODE":"101.8029","SITE":"AFETR","DECAY_DATE":null,"RCS_SIZE":"LARGE","MEAN_MOTION":"15.06397401","ECCENTRICITY":"0.00021170","MEAN_MOTION_DDOT":"0.0000000000000","OBJECT_ID":"2020-074BC","INCLINATION":"53.0579","SEMIMAJOR_AXIS":"6925.357","MEAN_MOTION_DOT":"-0.00000039","OBJECT_TYPE":"PAYLOAD","PERIAPSIS":"545.755","APOAPSIS":"548.688","TLE_LINE2":"2 46789  53.0579 101.8029 0002117  59.7130 300.4068 15.06397401 86496","GP_ID":"203613427","EPHEMERIS_TYPE":"0","MEAN_ELEMENT_THEORY":"SGP4","NORAD_CAT_ID":"46789","LAUNCH_DATE":"2020-10-24","TIME_SYSTEM":"UTC","TLE_LINE1":"1 46789U 20074BC  22135.18461304 -.00000039  00000-0  16266-4 0  9995","OBJECT_NAME":"STARLINK-1930","FILE":"3447100","PERIOD":"95.592","MEAN_ANOMALY":"300.4068","REV_AT_EPOCH":"8649"},{"TLE_LINE2":"2 46790  53.0563  99.8096 0001751  55.9937 304.1218 15.06386980 86552","GP_ID":"203648568","APOAPSIS":"548.466","NORAD_CAT_ID":"46790","MEAN_ELEMENT_THEORY":"SGP4","EPHEMERIS_TYPE":"0","TLE_LINE1":"1 46790U 20074BD  22135.62789119 -.00001186  00000-0 -60720-4 0  9992","FILE":"3447521","OBJECT_NAME":"STARLINK-1931","PERIOD":"95.593","LAUNCH_DATE":"2020-10-24","TIME_SYSTEM":"UTC","REV_AT_EPOCH":"8655","MEAN_ANOMALY":"304.1218","COUNTRY_CODE":"US","REF_FRAME":"TEME","ELEMENT_SET_NO":"999","BSTAR":"-0.00006072000000","CLASSIFICATION_TYPE":"U","CENTER_NAME":"EARTH","ARG_OF_PERICENTER":"55.9937","RA_OF_ASC_NODE":"99.8096","SITE":"AFETR","EPOCH":"2022-05-15T15:04:09.798816","RCS_SIZE":"LARGE","MEAN_MOTION":"15.06386980","DECAY_DATE":null,"OBJECT_TYPE":"PAYLOAD","PERIAPSIS":"546.041","MEAN_MOTION_DOT":"-0.00001186","ECCENTRICITY":"0.00017510","MEAN_MOTION_DDOT":"0.0000000000000","OBJECT_ID":"2020-074BD","INCLINATION":"53.0563","SEMIMAJOR_AXIS":"6925.388"},{"TLE_LINE1":"1 46791U 20074BE  22135.31088348  .00000010  00000-0  19592-4 0  9999","OBJECT_NAME":"STARLINK-1933","FILE":"3447100","PERIOD":"95.592","LAUNCH_DATE":"2020-10-24","TIME_SYSTEM":"UTC","REV_AT_EPOCH":"8651","MEAN_ANOMALY":"315.8877","TLE_LINE2":"2 46791  53.0569 101.2159 0002299  44.2296 315.8877 15.06400743 86514","GP_ID":"203613929","APOAPSIS":"548.803","NORAD_CAT_ID":"46791","MEAN_ELEMENT_THEORY":"SGP4","EPHEMERIS_TYPE":"0","RCS_SIZE":"LARGE","MEAN_MOTION":"15.06400743","DECAY_DATE":null,"MEAN_MOTION_DOT":"0.00000010","OBJECT_TYPE":"PAYLOAD","PERIAPSIS":"545.619","ECCENTRICITY":"0.00022990","OBJECT_ID":"2020-074BE","MEAN_MOTION_DDOT":"0.0000000000000","SEMIMAJOR_AXIS":"6925.346","INCLINATION":"53.0569","REF_FRAME":"TEME","COUNTRY_CODE":"US","ELEMENT_SET_NO":"999","CENTER_NAME":"EARTH","CLASSIFICATION_TYPE":"U","BSTAR":"0.00001959200000","ARG_OF_PERICENTER":"44.2296","RA_OF_ASC_NODE":"101.2159","SITE":"AFETR","EPOCH":"2022-05-15T07:27:40.332672"}];
